[{"OBJECT_NAME":"STARLINK-1667","OBJECT_ID":"2020-057AQ","EPOCH":"2026-03-10T00:00:02.999808","MEAN_MOTION":15.64679254,"ECCENTRICITY":0.00044965,"INCLINATION":53.0228,"RA_OF_ASC_NODE":223.2644,"ARG_OF_PERICENTER":176.4377,"MEAN_ANOMALY":150.6875,"EPHEMERIS_TYPE":0,"CLASSIFICATION_TYPE":"U","NORAD_CAT_ID":46155,"ELEMENT_SET_NO":999,"REV_AT_EPOCH":578,"BSTAR":0.00015658707,"MEAN_MOTION_DOT":0.00014951,"MEAN_MOTION_DDOT":0},{"OBJECT_NAME":"COSMOS 1408 DEB","OBJECT_ID":"1982-092ALR","EPOCH":"2026-03-09T18:12:47.403072","MEAN_MOTION":15.6244858,"ECCENTRICITY":0.00237417,"INCLINATION":82.5714,"RA_OF_ASC_NODE":343.2099,"ARG_OF_PERICENTER":182.9883,"MEAN_ANOMALY":177.1238,"EPHEMERIS_TYPE":0,"CLASSIFICATION_TYPE":"U","NORAD_CAT_ID":50621,"ELEMENT_SET_NO":999,"REV_AT_EPOCH":23606,"BSTAR":0.00039817485,"MEAN_MOTION_DOT":0.00035952,"MEAN_MOTION_DDOT":0}]
